{
  "type": "FeatureCollection",
  "features": [
    {
      "type": "Feature",
      "properties": {
        "norad_id": 33412,
        "name": "COSMO-SKYMED 3",
        "group": "resource",
        "lat": -10.39980283197884,
        "lon": -146.82481994546535,
        "alt_km": 562.8768369768741,
        "timestamp": "2025-12-27T02:10:15.844712+00:00",
        "meta_object_name": "COSMO-SKYMED 3",
        "meta_object_id": "2008-054A",
        "meta_epoch": "2025-12-26T19:50:13.183008",
        "meta_mean_motion": 15.05477081,
        "meta_eccentricity": 0.0017135,
        "meta_inclination": 97.845,
        "meta_ra_of_asc_node": 211.4569,
        "meta_arg_of_pericenter": 126.5702,
        "meta_mean_anomaly": 233.7104,
        "meta_ephemeris_type": 0,
        "meta_classification_type": "U",
        "meta_norad_cat_id": 33412,
        "meta_element_set_no": 999,
        "meta_rev_at_epoch": 93099,
        "meta_bstar": 0.00040233,
        "meta_mean_motion_dot": 5.737e-05,
        "meta_mean_motion_ddot": 0,
        "tle_line1": "1 33412U 08054A   25360.82654147  .00005737  00000+0  40233-3 0  9999",
        "tle_line2": "2 33412  97.8450 211.4569 0017135 126.5702 233.7104 15.05477081930994"
      },
      "geometry": {
        "type": "Point",
        "coordinates": [
          -146.82481994546535,
          -10.39980283197884
        ]
      }
    },
    {
      "type": "Feature",
      "properties": {
        "norad_id": 33446,
        "name": "YAOGAN-4",
        "group": "resource",
        "lat": -58.35604456461774,
        "lon": 97.99501133357145,
        "alt_km": 620.2596050538323,
        "timestamp": "2025-12-27T02:10:15.844737+00:00",
        "meta_object_name": "YAOGAN-4",
        "meta_object_id": "2008-061A",
        "meta_epoch": "2025-12-26T18:36:57.310848",
        "meta_mean_motion": 14.82723581,
        "meta_eccentricity": 0.0012963,
        "meta_inclination": 97.9198,
        "meta_ra_of_asc_node": 290.7385,
        "meta_arg_of_pericenter": 273.4167,
        "meta_mean_anomaly": 86.5564,
        "meta_ephemeris_type": 0,
        "meta_classification_type": "U",
        "meta_norad_cat_id": 33446,
        "meta_element_set_no": 999,
        "meta_rev_at_epoch": 92011,
        "meta_bstar": 0.00019776,
        "meta_mean_motion_dot": 1.545e-05,
        "meta_mean_motion_ddot": 0,
        "tle_line1": "1 33446U 08061A   25360.77566332  .00001545  00000+0  19776-3 0  9997",
        "tle_line2": "2 33446  97.9198 290.7385 0012963 273.4167  86.5564 14.82723581920118"
      },
      "geometry": {
        "type": "Point",
        "coordinates": [
          97.99501133357145,
          -58.35604456461774
        ]
      }
    },
    {
      "type": "Feature",
      "properties": {
        "norad_id": 33492,
        "name": "GOSAT (IBUKI)",
        "group": "resource",
        "lat": -48.88097415798203,
        "lon": -79.86809099419274,
        "alt_km": 676.1917548819638,
        "timestamp": "2025-12-27T02:10:15.844750+00:00",
        "meta_object_name": "GOSAT (IBUKI)",
        "meta_object_id": "2009-002A",
        "meta_epoch": "2025-12-26T07:07:43.620960",
        "meta_mean_motion": 14.67550857,
        "meta_eccentricity": 0.0001037,
        "meta_inclination": 98.0771,
        "meta_ra_of_asc_node": 108.712,
        "meta_arg_of_pericenter": 105.7066,
        "meta_mean_anomaly": 254.4253,
        "meta_ephemeris_type": 0,
        "meta_classification_type": "U",
        "meta_norad_cat_id": 33492,
        "meta_element_set_no": 999,
        "meta_rev_at_epoch": 90610,
        "meta_bstar": 0.00017142,
        "meta_mean_motion_dot": 9.24e-06,
        "meta_mean_motion_ddot": 0,
        "tle_line1": "1 33492U 09002A   25360.29703265  .00000924  00000+0  17142-3 0  9994",
        "tle_line2": "2 33492  98.0771 108.7120 0001037 105.7066 254.4253 14.67550857906109"
      },
      "geometry": {
        "type": "Point",
        "coordinates": [
          -79.86809099419274,
          -48.88097415798203
        ]
      }
    },
    {
      "type": "Feature",
      "properties": {
        "norad_id": 35681,
        "name": "DEIMOS-1",
        "group": "resource",
        "lat": -30.26301439606165,
        "lon": 165.56398896814343,
        "alt_km": 651.1660006111242,
        "timestamp": "2025-12-27T02:10:15.844761+00:00",
        "meta_object_name": "DEIMOS-1",
        "meta_object_id": "2009-041A",
        "meta_epoch": "2025-12-26T21:25:29.792352",
        "meta_mean_motion": 14.74975615,
        "meta_eccentricity": 0.0002409,
        "meta_inclination": 97.716,
        "meta_ra_of_asc_node": 160.8381,
        "meta_arg_of_pericenter": 58.2463,
        "meta_mean_anomaly": 301.8981,
        "meta_ephemeris_type": 0,
        "meta_classification_type": "U",
        "meta_norad_cat_id": 35681,
        "meta_element_set_no": 999,
        "meta_rev_at_epoch": 88148,
        "meta_bstar": 0.0001878,
        "meta_mean_motion_dot": 1.215e-05,
        "meta_mean_motion_ddot": 0,
        "tle_line1": "1 35681U 09041A   25360.89270593  .00001215  00000+0  18780-3 0  9991",
        "tle_line2": "2 35681  97.7160 160.8381 0002409  58.2463 301.8981 14.74975615881483"
      },
      "geometry": {
        "type": "Point",
        "coordinates": [
          165.56398896814343,
          -30.26301439606165
        ]
      }
    },
    {
      "type": "Feature",
      "properties": {
        "norad_id": 35682,
        "name": "DUBAISAT-1",
        "group": "resource",
        "lat": -65.94601305917121,
        "lon": -66.75701972355638,
        "alt_km": 647.25903964594,
        "timestamp": "2025-12-27T02:10:15.844771+00:00",
        "meta_object_name": "DUBAISAT-1",
        "meta_object_id": "2009-041B",
        "meta_epoch": "2025-12-26T20:10:02.479008",
        "meta_mean_motion": 14.74642822,
        "meta_eccentricity": 0.0009251,
        "meta_inclination": 97.9799,
        "meta_ra_of_asc_node": 131.3133,
        "meta_arg_of_pericenter": 263.5938,
        "meta_mean_anomaly": 96.4218,
        "meta_ephemeris_type": 0,
        "meta_classification_type": "U",
        "meta_norad_cat_id": 35682,
        "meta_element_set_no": 999,
        "meta_rev_at_epoch": 87969,
        "meta_bstar": 0.0002266,
        "meta_mean_motion_dot": 1.462e-05,
        "meta_mean_motion_ddot": 0,
        "tle_line1": "1 35682U 09041B   25360.84030647  .00001462  00000+0  22660-3 0  9997",
        "tle_line2": "2 35682  97.9799 131.3133 0009251 263.5938  96.4218 14.74642822879693"
      },
      "geometry": {
        "type": "Point",
        "coordinates": [
          -66.75701972355638,
          -65.94601305917121
        ]
      }
    },
    {
      "type": "Feature",
      "properties": {
        "norad_id": 35931,
        "name": "OCEANSAT-2",
        "group": "resource",
        "lat": 23.947412979606106,
        "lon": -176.08355587924478,
        "alt_km": 904.2931816651935,
        "timestamp": "2025-12-27T02:10:15.844782+00:00",
        "meta_object_name": "OCEANSAT-2",
        "meta_object_id": "2009-051A",
        "meta_epoch": "2025-12-26T21:59:55.676832",
        "meta_mean_motion": 13.99623096,
        "meta_eccentricity": 0.001586,
        "meta_inclination": 98.2218,
        "meta_ra_of_asc_node": 0.0786,
        "meta_arg_of_pericenter": 7.7415,
        "meta_mean_anomaly": 352.3994,
        "meta_ephemeris_type": 0,
        "meta_classification_type": "U",
        "meta_norad_cat_id": 35931,
        "meta_element_set_no": 999,
        "meta_rev_at_epoch": 85523,
        "meta_bstar": 5.0435e-05,
        "meta_mean_motion_dot": 3.6e-07,
        "meta_mean_motion_ddot": 0,
        "tle_line1": "1 35931U 09051A   25360.91661663  .00000036  00000+0  50435-4 0  9999",
        "tle_line2": "2 35931  98.2218   0.0786 0015860   7.7415 352.3994 13.99623096855234"
      },
      "geometry": {
        "type": "Point",
        "coordinates": [
          -176.08355587924478,
          23.947412979606106
        ]
      }
    },
    {
      "type": "Feature",
      "properties": {
        "norad_id": 35946,
        "name": "WORLDVIEW-2 (WV-2)",
        "group": "resource",
        "lat": 79.08606888475313,
        "lon": 21.31255967699965,
        "alt_km": 756.4375427411915,
        "timestamp": "2025-12-27T02:10:15.844792+00:00",
        "meta_object_name": "WORLDVIEW-2 (WV-2)",
        "meta_object_id": "2009-055A",
        "meta_epoch": "2025-12-26T19:06:18.923040",
        "meta_mean_motion": 14.3773027,
        "meta_eccentricity": 0.0004631,
        "meta_inclination": 98.4771,
        "meta_ra_of_asc_node": 71.6874,
        "meta_arg_of_pericenter": 35.6989,
        "meta_mean_anomaly": 324.4507,
        "meta_ephemeris_type": 0,
        "meta_classification_type": "U",
        "meta_norad_cat_id": 35946,
        "meta_element_set_no": 999,
        "meta_rev_at_epoch": 85087,
        "meta_bstar": 7.7502e-05,
        "meta_mean_motion_dot": 1.9e-06,
        "meta_mean_motion_ddot": 0,
        "tle_line1": "1 35946U 09055A   25360.79605235  .00000190  00000+0  77502-4 0  9993",
        "tle_line2": "2 35946  98.4771  71.6874 0004631  35.6989 324.4507 14.37730270850879"
      },
      "geometry": {
        "type": "Point",
        "coordinates": [
          21.31255967699965,
          79.08606888475313
        ]
      }
    }
  ]
}